start=new Date('2023-05-05T00:00:00.000Z').valueOf();
sats=[{"OBJECT_ID":"2023-014AF","CENTER_NAME":"EARTH","LAUNCH_DATE":"2023-01-31","COUNTRY_CODE":"US","RA_OF_ASC_NODE":"187.6337","OBJECT_TYPE":"PAYLOAD","MEAN_MOTION_DDOT":"0.0000000000000","EPOCH":"2023-05-04T21:32:21.217056","PERIAPSIS":"357.468","REV_AT_EPOCH":"1577","TIME_SYSTEM":"UTC","GP_ID":"231274577","INCLINATION":"69.9984","TLE_LINE1":"1 55420U 23014AF  23124.89746779  .00000050  00000-0  21850-5 0  9991","ECCENTRICITY":"0.00024620","TLE_LINE2":"2 55420  69.9984 187.6337 0002462 277.8160  82.2756 15.69920350 15773","APOAPSIS":"360.786","MEAN_ELEMENT_THEORY":"SGP4","ARG_OF_PERICENTER":"277.8160","SITE":"AFWTR","CLASSIFICATION_TYPE":"U","FILE":"3901186","RCS_SIZE":"LARGE","PERIOD":"91.724","OBJECT_NAME":"STARLINK-5604","EPHEMERIS_TYPE":"0","ELEMENT_SET_NO":"999","DECAY_DATE":null,"MEAN_ANOMALY":"82.2756","MEAN_MOTION_DOT":"0.00000050","SEMIMAJOR_AXIS":"6737.262","REF_FRAME":"TEME","BSTAR":"0.00000218500000","MEAN_MOTION":"15.69920350","NORAD_CAT_ID":"55420"},{"COUNTRY_CODE":"US","LAUNCH_DATE":"2023-01-31","CENTER_NAME":"EARTH","OBJECT_ID":"2023-014AG","TLE_LINE1":"1 55421U 23014AG  23124.91668981 -.00861323  00000-0 -18956-1 0  9992","ECCENTRICITY":"0.00033730","INCLINATION":"69.9999","GP_ID":"231275828","REV_AT_EPOCH":"130","TIME_SYSTEM":"UTC","EPOCH":"2023-05-04T22:00:01.999584","PERIAPSIS":"424.593","MEAN_MOTION_DDOT":"0.0000000000000","OBJECT_TYPE":"PAYLOAD","RA_OF_ASC_NODE":"188.4779","APOAPSIS":"429.184","TLE_LINE2":"2 55421  69.9999 188.4779 0003373 270.0450 119.7079 15.46529852  1303","ARG_OF_PERICENTER":"270.0450","MEAN_ELEMENT_THEORY":"SGP4","SITE":"AFWTR","CLASSIFICATION_TYPE":"U","ELEMENT_SET_NO":"999","EPHEMERIS_TYPE":"0","OBJECT_NAME":"STARLINK-5598","PERIOD":"93.112","RCS_SIZE":"LARGE","FILE":"3901186","SEMIMAJOR_AXIS":"6805.024","MEAN_MOTION_DOT":"-0.00861323","MEAN_ANOMALY":"119.7079","DECAY_DATE":null,"NORAD_CAT_ID":"55421","MEAN_MOTION":"15.46529852","BSTAR":"-0.01895600000000","REF_FRAME":"TEME"},{"FILE":"3901186","RCS_SIZE":"LARGE","OBJECT_NAME":"STARLINK-5006","PERIOD":"93.182","ELEMENT_SET_NO":"999","EPHEMERIS_TYPE":"0","SITE":"AFWTR","CLASSIFICATION_TYPE":"U","BSTAR":"-0.01960300000000","REF_FRAME":"TEME","NORAD_CAT_ID":"55422","MEAN_MOTION":"15.45363934","MEAN_ANOMALY":"102.3588","DECAY_DATE":null,"MEAN_MOTION_DOT":"-0.00856082","SEMIMAJOR_AXIS":"6808.446","OBJECT_TYPE":"PAYLOAD","RA_OF_ASC_NODE":"188.4979","MEAN_MOTION_DDOT":"0.0000000000000","REV_AT_EPOCH":"130","TIME_SYSTEM":"UTC","PERIAPSIS":"428.078","EPOCH":"2023-05-04T22:00:01.999584","INCLINATION":"69.9998","TLE_LINE1":"1 55422U 23014AH  23124.91668981 -.00856082  00000-0 -19603-1 0  9999","ECCENTRICITY":"0.00032800","GP_ID":"231276079","CENTER_NAME":"EARTH","OBJECT_ID":"2023-014AH","LAUNCH_DATE":"2023-01-31","COUNTRY_CODE":"US","MEAN_ELEMENT_THEORY":"SGP4","ARG_OF_PERICENTER":"269.7642","TLE_LINE2":"2 55422  69.9998 188.4979 0003280 269.7642 102.3588 15.45363934  1309","APOAPSIS":"432.544"},{"MEAN_MOTION":"15.46082248","NORAD_CAT_ID":"55423","REF_FRAME":"TEME","BSTAR":"-0.01935400000000","DECAY_DATE":null,"MEAN_ANOMALY":"113.2406","SEMIMAJOR_AXIS":"6806.337","MEAN_MOTION_DOT":"-0.00865499","RCS_SIZE":"LARGE","FILE":"3901186","EPHEMERIS_TYPE":"0","ELEMENT_SET_NO":"999","PERIOD":"93.139","OBJECT_NAME":"STARLINK-5068","SITE":"AFWTR","CLASSIFICATION_TYPE":"U","MEAN_ELEMENT_THEORY":"SGP4","ARG_OF_PERICENTER":"269.9046","TLE_LINE2":"2 55423  69.9999 188.4855 0003356 269.9046 113.2406 15.46082248  1305","APOAPSIS":"430.486","MEAN_MOTION_DDOT":"0.0000000000000","RA_OF_ASC_NODE":"188.4855","OBJECT_TYPE":"PAYLOAD","GP_ID":"231274325","ECCENTRICITY":"0.00033560","TLE_LINE1":"1 55423U 23014AJ  23124.91668981 -.00865499  00000-0 -19354-1 0  9995","INCLINATION":"69.9999","PERIAPSIS":"425.918","EPOCH":"2023-05-04T22:00:01.999584","REV_AT_EPOCH":"130","TIME_SYSTEM":"UTC","LAUNCH_DATE":"2023-01-31","OBJECT_ID":"2023-014AJ","CENTER_NAME":"EARTH","COUNTRY_CODE":"US"},{"COUNTRY_CODE":"US","CENTER_NAME":"EARTH","OBJECT_ID":"2023-014AL","LAUNCH_DATE":"2023-01-31","REV_AT_EPOCH":"130","TIME_SYSTEM":"UTC","PERIAPSIS":"426.608","EPOCH":"2023-05-04T22:00:01.999584","ECCENTRICITY":"0.00033220","TLE_LINE1":"1 55425U 23014AL  23124.91668981 -.00862764  00000-0 -19439-1 0  9993","INCLINATION":"69.9997","GP_ID":"231275077","OBJECT_TYPE":"PAYLOAD","RA_OF_ASC_NODE":"188.4898","MEAN_MOTION_DDOT":"0.0000000000000","APOAPSIS":"431.130","TLE_LINE2":"2 55425  69.9997 188.4898 0003322 269.8767 109.8045 15.45855064  1307","ARG_OF_PERICENTER":"269.8767","MEAN_ELEMENT_THEORY":"SGP4","SITE":"AFWTR","CLASSIFICATION_TYPE":"U","OBJECT_NAME":"STARLINK-5615","PERIOD":"93.152","ELEMENT_SET_NO":"999","EPHEMERIS_TYPE":"0","FILE":"3901186","RCS_SIZE":"LARGE","MEAN_MOTION_DOT":"-0.00862764","SEMIMAJOR_AXIS":"6807.004","MEAN_ANOMALY":"109.8045","DECAY_DATE":null,"BSTAR":"-0.01943900000000","REF_FRAME":"TEME","NORAD_CAT_ID":"55425","MEAN_MOTION":"15.45855064"},{"MEAN_ELEMENT_THEORY":"SGP4","ARG_OF_PERICENTER":"268.5867","TLE_LINE2":"2 55426  69.9994 188.5054 0003312 268.5867  96.7299 15.44984742  1306","APOAPSIS":"433.680","MEAN_MOTION_DDOT":"0.0000000000000","OBJECT_TYPE":"PAYLOAD","RA_OF_ASC_NODE":"188.5054","ECCENTRICITY":"0.00033120","TLE_LINE1":"1 55426U 23014AM  23124.91668981 -.00875049  00000-0 -20051-1 0  9996","INCLINATION":"69.9994","GP_ID":"231275329","REV_AT_EPOCH":"130","TIME_SYSTEM":"UTC","EPOCH":"2023-05-04T22:00:01.999584","PERIAPSIS":"429.170","LAUNCH_DATE":"2023-01-31","CENTER_NAME":"EARTH","OBJECT_ID":"2023-014AM","COUNTRY_CODE":"US","NORAD_CAT_ID":"55426","MEAN_MOTION":"15.44984742","BSTAR":"-0.02005100000000","REF_FRAME":"TEME","MEAN_ANOMALY":"96.7299","DECAY_DATE":null,"SEMIMAJOR_AXIS":"6809.560","MEAN_MOTION_DOT":"-0.00875049","RCS_SIZE":"LARGE","FILE":"3901186","ELEMENT_SET_NO":"999","EPHEMERIS_TYPE":"0","OBJECT_NAME":"STARLINK-5638","PERIOD":"93.205","CLASSIFICATION_TYPE":"U","SITE":"AFWTR"},{"MEAN_ELEMENT_THEORY":"SGP4","ARG_OF_PERICENTER":"269.8557","TLE_LINE2":"2 55427  69.9995 188.4923 0003291 269.8557 106.7679 15.45672150  1300","APOAPSIS":"431.646","MEAN_MOTION_DDOT":"0.0000000000000","RA_OF_ASC_NODE":"188.4923","OBJECT_TYPE":"PAYLOAD","GP_ID":"231275580","INCLINATION":"69.9995","TLE_LINE1":"1 55427U 23014AN  23124.91668981 -.00855264  00000-0 -19376-1 0  9992","ECCENTRICITY":"0.00032910","EPOCH":"2023-05-04T22:00:01.999584","PERIAPSIS":"427.165","TIME_SYSTEM":"UTC","REV_AT_EPOCH":"130","LAUNCH_DATE":"2023-01-31","OBJECT_ID":"2023-014AN","CENTER_NAME":"EARTH","COUNTRY_CODE":"US","MEAN_MOTION":"15.45672150","NORAD_CAT_ID":"55427","REF_FRAME":"TEME","BSTAR":"-0.01937600000000","DECAY_DATE":null,"MEAN_ANOMALY":"106.7679","SEMIMAJOR_AXIS":"6807.541","MEAN_MOTION_DOT":"-0.00855264","RCS_SIZE":"LARGE","FILE":"3901186","EPHEMERIS_TYPE":"0","ELEMENT_SET_NO":"999","PERIOD":"93.163","OBJECT_NAME":"STARLINK-5073","SITE":"AFWTR","CLASSIFICATION_TYPE":"U"},{"COUNTRY_CODE":"US","LAUNCH_DATE":"2023-01-31","OBJECT_ID":"2023-014AP","CENTER_NAME":"EARTH","GP_ID":"231274825","INCLINATION":"69.9997","TLE_LINE1":"1 55428U 23014AP  23124.91668981 -.00875610  00000-0 -20443-1 0  9997","ECCENTRICITY":"0.00032960","PERIAPSIS":"430.786","EPOCH":"2023-05-04T22:00:01.999584","REV_AT_EPOCH":"130","TIME_SYSTEM":"UTC","MEAN_MOTION_DDOT":"0.0000000000000","RA_OF_ASC_NODE":"188.5160","OBJECT_TYPE":"PAYLOAD","APOAPSIS":"435.276","TLE_LINE2":"2 55428  69.9997 188.5160 0003296 270.8340  85.4032 15.44438338  1307","ARG_OF_PERICENTER":"270.8340","MEAN_ELEMENT_THEORY":"SGP4","SITE":"AFWTR","CLASSIFICATION_TYPE":"U","EPHEMERIS_TYPE":"0","ELEMENT_SET_NO":"999","PERIOD":"93.238","OBJECT_NAME":"STARLINK-5064","RCS_SIZE":"LARGE","FILE":"3901186","SEMIMAJOR_AXIS":"6811.166","MEAN_MOTION_DOT":"-0.00875610","DECAY_DATE":null,"MEAN_ANOMALY":"85.4032","MEAN_MOTION":"15.44438338","NORAD_CAT_ID":"55428","REF_FRAME":"TEME","BSTAR":"-0.02044300000000"},{"TLE_LINE2":"2 55429  69.9996 188.5014 0003306 268.3686 100.8195 15.45216070  1302","APOAPSIS":"432.996","MEAN_ELEMENT_THEORY":"SGP4","ARG_OF_PERICENTER":"268.3686","CENTER_NAME":"EARTH","OBJECT_ID":"2023-014AQ","LAUNCH_DATE":"2023-01-31","COUNTRY_CODE":"US","OBJECT_TYPE":"PAYLOAD","RA_OF_ASC_NODE":"188.5014","MEAN_MOTION_DDOT":"0.0000000000000","REV_AT_EPOCH":"130","TIME_SYSTEM":"UTC","PERIAPSIS":"428.494","EPOCH":"2023-05-04T22:00:01.999584","INCLINATION":"69.9996","TLE_LINE1":"1 55429U 23014AQ  23124.91668981 -.00874935  00000-0 -19890-1 0  9991","ECCENTRICITY":"0.00033060","GP_ID":"231274578","MEAN_ANOMALY":"100.8195","DECAY_DATE":null,"MEAN_MOTION_DOT":"-0.00874935","SEMIMAJOR_AXIS":"6808.880","BSTAR":"-0.01989000000000","REF_FRAME":"TEME","NORAD_CAT_ID":"55429","MEAN_MOTION":"15.45216070","SITE":"AFWTR","CLASSIFICATION_TYPE":"U","FILE":"3901186","RCS_SIZE":"LARGE","OBJECT_NAME":"STARLINK-5645","PERIOD":"93.191","ELEMENT_SET_NO":"999","EPHEMERIS_TYPE":"0"},{"ARG_OF_PERICENTER":"268.6267","MEAN_ELEMENT_THEORY":"SGP4","APOAPSIS":"574.260","TLE_LINE2":"2 55430  70.0002 206.6723 0003219 268.6267  91.4523 14.98341448 15282","GP_ID":"231275829","TLE_LINE1":"1 55430U 23014AR  23124.65608299  .00000101  00000-0  16246-4 0  9999","ECCENTRICITY":"0.00032190","INCLINATION":"70.0002","EPOCH":"2023-05-04T15:44:45.570336","PERIAPSIS":"569.785","REV_AT_EPOCH":"1528","TIME_SYSTEM":"UTC","MEAN_MOTION_DDOT":"0.0000000000000","RA_OF_ASC_NODE":"206.6723","OBJECT_TYPE":"PAYLOAD","COUNTRY_CODE":"US","LAUNCH_DATE":"2023-01-31","OBJECT_ID":"2023-014AR","CENTER_NAME":"EARTH","MEAN_MOTION":"14.98341448","NORAD_CAT_ID":"55430","REF_FRAME":"TEME","BSTAR":"0.00001624600000","SEMIMAJOR_AXIS":"6950.157","MEAN_MOTION_DOT":"0.00000101","DECAY_DATE":null,"MEAN_ANOMALY":"91.4523","EPHEMERIS_TYPE":"0","ELEMENT_SET_NO":"999","PERIOD":"96.106","OBJECT_NAME":"STARLINK-5642","RCS_SIZE":"LARGE","FILE":"3901186","SITE":"AFWTR","CLASSIFICATION_TYPE":"U"}];
